NORAD_CAT_ID,OBJECT_NAME,OBJECT_TYPE,EPOCH,MEAN_MOTION,ECCENTRICITY,INCLINATION,RA_OF_ASC_NODE,ARG_OF_PERICENTER,MEAN_ANOMALY,BSTAR,MEAN_MOTION_DOT,MEAN_MOTION_DDOT,TLE_LINE0,TLE_LINE1,TLE_LINE2,SEMIMAJOR_AXIS,PERIOD,APOGEE,PERIGEE,DECAYED
55790.0,STARLINK-5813,PAYLOAD,2024-03-14 20:33:01,14.98345546,0.000338,69.9997,231.9968,269.3723,90.7049,5.4209e-05,5.54e-06,0.0,0 STARLINK-5813,1 55790U 23028BB  24074.85626847  .00000554  00000-0  54209-4 0  9992,2 55790  69.9997 231.9968 0003380 269.3723  90.7049 14.98345546 58451,6950.145,96.106,574.359,569.661,0.0
55790.0,STARLINK-5813,PAYLOAD,2024-03-15 12:34:22,14.98338692,0.0002704,70.0008,230.315,269.8211,90.2638,-9.2349e-05,-1.195e-05,0.0,0 STARLINK-5813,1 55790U 23028BB  24075.52387335 -.00001195  00000-0 -92349-4 0  9994,2 55790  70.0008 230.3150 0002704 269.8211  90.2638 14.98338692 58542,6950.166,96.106,573.91,570.152,0.0
55790.0,STARLINK-5813,PAYLOAD,2024-03-16 12:36:23,14.98330428,0.0002678,70.001,227.7901,259.0021,101.0837,-7.8075e-05,-1.024e-05,0.0,0 STARLINK-5813,1 55790U 23028BB  24076.52527270 -.00001024  00000-0 -78075-4 0  9990,2 55790  70.0010 227.7901 0002678 259.0021 101.0837 14.98330428 58696,6950.192,96.107,573.918,570.195,0.0
55790.0,STARLINK-5813,PAYLOAD,2024-03-16 14:12:31,14.9833049,0.0002674,70.0013,227.6221,260.7034,99.3823,-7.5246e-05,-9.91e-06,0.0,0 STARLINK-5813,1 55790U 23028BB  24076.59203267 -.00000991  00000-0 -75246-4 0  9993,2 55790  70.0013 227.6221 0002674 260.7034  99.3823 14.98330490 58718,6950.191,96.107,573.915,570.198,0.0
55790.0,STARLINK-5813,PAYLOAD,2024-03-16 19:00:55,14.98329412,0.0002753,70.0014,227.1175,266.1107,93.9737,-8.8847e-05,-1.153e-05,0.0,0 STARLINK-5813,1 55790U 23028BB  24076.79231404 -.00001153  00000-0 -88847-4 0  9991,2 55790  70.0014 227.1175 0002753 266.1107  93.9737 14.98329412 58740,6950.195,96.107,573.973,570.146,0.0
55790.0,STARLINK-5813,PAYLOAD,2024-03-17 12:38:24,14.98325674,0.0003073,70.0006,225.2649,268.6693,91.4114,-4.6797e-07,-9.9e-07,0.0,0 STARLINK-5813,1 55790U 23028BB  24077.52667347 -.00000099  00000-0 -46797-6 0  9990,2 55790  70.0006 225.2649 0003073 268.6693  91.4114 14.98325674 58848,6950.206,96.107,574.207,569.935,0.0
55790.0,STARLINK-5813,PAYLOAD,2024-03-17 14:14:32,14.98325607,0.0003074,70.0007,225.0966,268.5713,91.5094,-6.572e-07,-1.01e-06,0.0,0 STARLINK-5813,1 55790U 23028BB  24077.59343368 -.00000101  00000-0 -65720-6 0  9992,2 55790  70.0007 225.0966 0003074 268.5713  91.5094 14.98325607 58868,6950.206,96.107,574.208,569.935,0.0
55790.0,STARLINK-5813,PAYLOAD,2024-03-17 19:02:56,14.98327026,0.0003035,70.0008,224.592,268.2277,91.8535,1.3153e-05,6.4e-07,0.0,0 STARLINK-5813,1 55790U 23028BB  24077.79371283  .00000064  00000-0  13153-4 0  9998,2 55790  70.0008 224.5920 0003035 268.2277  91.8535 14.98327026 58895,6950.202,96.107,574.176,569.958,0.0
55790.0,STARLINK-5813,PAYLOAD,2024-03-18 12:40:25,14.98330392,0.0003112,70.0008,222.74,267.4172,92.663,3.4463e-05,3.18e-06,0.0,0 STARLINK-5813,1 55790U 23028BB  24078.52807016  .00000318  00000-0  34463-4 0  9997,2 55790  70.0008 222.7400 0003112 267.4172  92.6630 14.98330392 58995,6950.192,96.107,574.22,569.894,0.0
55790.0,STARLINK-5813,PAYLOAD,2024-03-18 19:04:57,14.98333361,0.0003077,70.0009,222.0671,268.5835,91.4972,6.6464e-05,7e-06,0.0,0 STARLINK-5813,1 55790U 23028BB  24078.79510714  .00000700  00000-0  66464-4 0  9993,2 55790  70.0009 222.0671 0003077 268.5835  91.4972 14.98333361 59049,6950.182,96.107,574.186,569.909,0.0
55790.0,STARLINK-5813,PAYLOAD,2024-03-19 11:06:17,14.98331821,0.0003047,70.0011,220.3843,265.6212,94.4599,4.5733e-05,4.53e-06,0.0,0 STARLINK-5813,1 55790U 23028BB  24079.46270739  .00000453  00000-0  45733-4 0  9999,2 55790  70.0011 220.3843 0003047 265.6212  94.4599 14.98331821 59146,6950.187,96.107,574.17,569.935,0.0
55790.0,STARLINK-5813,PAYLOAD,2024-03-19 19:06:57,14.98337795,0.0002965,70.0013,219.5431,263.6466,96.4355,0.00010952,1.214e-05,0.0,0 STARLINK-5813,1 55790U 23028BB  24079.79650070  .00001214  00000-0  10952-3 0  9995,2 55790  70.0013 219.5431 0002965 263.6466  96.4355 14.98337795 59180,6950.169,96.106,574.095,569.973,0.0
55790.0,STARLINK-5813,PAYLOAD,2024-03-20 09:32:11,14.9832421,0.0001971,70.0044,218.0304,233.4434,126.6544,5.3281e-05,5.43e-06,0.0,0 STARLINK-5813,1 55790U 23028BB  24080.39735181  .00000543  00000-0  53281-4 0  9997,2 55790  70.0044 218.0304 0001971 233.4434 126.6544 14.98324210 59277,6950.211,96.107,573.446,570.706,0.0
55790.0,STARLINK-5813,PAYLOAD,2024-03-20 14:20:35,14.98326717,0.0002754,70.0034,217.5291,245.1249,114.9624,-9.7209e-05,-1.252e-05,0.0,0 STARLINK-5813,1 55790U 23028BB  24080.59763330 -.00001252  00000-0 -97209-4 0  9994,2 55790  70.0034 217.5291 0002754 245.1249 114.9624 14.98326717 59317,6950.203,96.107,573.982,570.154,0.0
55790.0,STARLINK-5813,PAYLOAD,2024-03-20 19:09:00,14.98321918,0.000241,70.0028,217.0214,248.8446,111.2456,-9.6756e-05,-1.247e-05,0.0,0 STARLINK-5813,1 55790U 23028BB  24080.79791877 -.00001247  00000-0 -96756-4 0  9993,2 55790  70.0028 217.0214 0002410 248.8446 111.2456 14.98321918 59342,6950.218,96.108,573.758,570.408,0.0
55790.0,STARLINK-5813,PAYLOAD,2024-03-21 12:46:28,14.98333808,0.0003013,70.0013,215.1679,260.7817,99.3001,-5.1559e-05,-7.08e-06,0.0,0 STARLINK-5813,1 55790U 23028BB  24081.53226868 -.00000708  00000-0 -51559-4 0  9992,2 55790  70.0013 215.1679 0003013 260.7817  99.3001 14.98333808 59449,6950.181,96.107,574.14,569.952,0.0
55790.0,STARLINK-5813,PAYLOAD,2024-03-21 14:22:36,14.98333476,0.000298,70.0012,214.9986,267.0325,93.0493,-3.166e-05,-4.71e-06,0.0,0 STARLINK-5813,1 55790U 23028BB  24081.59902871 -.00000471  00000-0 -31660-4 0  9991,2 55790  70.0012 214.9986 0002980 267.0325  93.0493 14.98333476 59461,6950.182,96.107,574.118,569.976,0.0
55790.0,STARLINK-5813,PAYLOAD,2024-03-21 19:10:59,14.98340724,0.0002812,70.0015,214.4942,258.7908,101.2936,4.265e-05,4.16e-06,0.0,0 STARLINK-5813,1 55790U 23028BB  24081.79930062  .00000416  00000-0  42650-4 0  9994,2 55790  70.0015 214.4942 0002812 258.7908 101.2936 14.98340724 59489,6950.16,96.106,573.979,570.07,0.0
55790.0,STARLINK-5813,PAYLOAD,2024-03-22 11:12:20,14.98330636,0.0002638,70.0019,212.8111,261.1419,98.9442,0.00012459,1.394e-05,0.0,0 STARLINK-5813,1 55790U 23028BB  24082.46690329  .00001394  00000-0  12459-3 0  9997,2 55790  70.0019 212.8111 0002638 261.1419  98.9442 14.98330636 59580,6950.191,96.107,573.889,570.222,0.0
55790.0,STARLINK-5813,PAYLOAD,2024-03-22 14:24:36,14.98329819,0.0002619,70.0021,212.4749,259.2584,100.8281,0.00013414,1.508e-05,0.0,0 STARLINK-5813,1 55790U 23028BB  24082.60042356  .00001508  00000-0  13414-3 0  9993,2 55790  70.0021 212.4749 0002619 259.2584 100.8281 14.98329819 59615,6950.193,96.107,573.879,570.238,0.0
55790.0,STARLINK-5813,PAYLOAD,2024-03-22 19:13:00,14.9833265,0.0002523,70.0025,211.97,256.4366,103.6512,0.00015147,1.715e-05,0.0,0 STARLINK-5813,1 55790U 23028BB  24082.80070081  .00001715  00000-0  15147-3 0  9996,2 55790  70.0025 211.9700 0002523 256.4366 103.6512 14.98332650 59649,6950.185,96.107,573.803,570.296,0.0
55790.0,STARLINK-5813,PAYLOAD,2024-03-23 11:14:21,14.98331448,0.0002653,69.9994,210.281,261.3451,98.7407,-0.00012097,-1.536e-05,0.0,0 STARLINK-5813,1 55790U 23028BB  24083.46830885 -.00001536  00000-0 -12097-3 0  9999,2 55790  69.9994 210.2810 0002653 261.3451  98.7407 14.98331448 59730,6950.188,96.107,573.897,570.21,0.0
55790.0,STARLINK-5813,PAYLOAD,2024-03-23 19:15:02,14.98328052,0.0002462,70.002,209.4451,258.6398,101.4484,-0.00010355,-1.328e-05,0.0,0 STARLINK-5813,1 55790U 23028BB  24083.80211129 -.00001328  00000-0 -10355-3 0  9995,2 55790  70.0020 209.4451 0002462 258.6398 101.4484 14.98328052 59791,6950.199,96.107,573.775,570.353,0.0
55790.0,STARLINK-5813,PAYLOAD,2024-03-24 12:52:30,14.98336241,0.0002701,70.0013,207.5914,260.7491,99.3363,-2.0195e-05,-3.34e-06,0.0,0 STARLINK-5813,1 55790U 23028BB  24084.53646182 -.00000334  00000-0 -20195-4 0  9997,2 55790  70.0013 207.5914 0002701 260.7491  99.3363 14.98336241 59891,6950.174,96.107,573.916,570.161,0.0
55790.0,STARLINK-5813,PAYLOAD,2024-03-24 14:28:38,14.98335492,0.0002555,70.0014,207.4228,249.8268,110.2616,6.0154e-06,-2.1e-07,0.0,0 STARLINK-5813,1 55790U 23028BB  24084.60322104 -.00000021  00000-0  60154-5 0  9992,2 55790  70.0014 207.4228 0002555 249.8268 110.2616 14.98335492 59910,6950.176,96.107,573.817,570.265,0.0
55790.0,STARLINK-5813,PAYLOAD,2024-03-24 17:40:53,14.98342921,0.0002541,70.0019,207.0877,254.1974,105.8905,4.9638e-05,5e-06,0.0,0 STARLINK-5813,1 55790U 23028BB  24084.73673430  .00000500  00000-0  49638-4 0  9991,2 55790  70.0019 207.0877 0002541 254.1974 105.8905 14.98342921 59926,6950.153,96.106,573.784,570.252,0.0
55790.0,STARLINK-5813,PAYLOAD,2024-03-25 01:41:34,14.98339809,0.0002149,70.0031,206.2437,279.1269,80.9647,-2.685e-05,-4.13e-06,0.0,0 STARLINK-5813,1 55790U 23028BB  24085.07053845 -.00000413  00000-0 -26850-4 0  9997,2 55790  70.0031 206.2437 0002149 279.1269  80.9647 14.98339809 59973,6950.163,96.106,573.521,570.534,0.0
55790.0,STARLINK-5813,PAYLOAD,2024-03-25 12:54:31,14.98323831,0.0002514,70.0008,205.0642,270.175,89.9121,1.4806e-05,8.4e-07,0.0,0 STARLINK-5813,1 55790U 23028BB  24085.53786711  .00000084  00000-0  14806-4 0  9993,2 55790  70.0008 205.0642 0002514 270.1750  89.9121 14.98323831 60048,6950.212,96.107,573.824,570.33,0.0
55790.0,STARLINK-5813,PAYLOAD,2024-03-25 17:42:55,14.98327522,0.000261,70.0013,204.5612,272.8048,87.2812,4.8468e-05,4.85e-06,0.0,0 STARLINK-5813,1 55790U 23028BB  24085.73814438  .00000485  00000-0  48468-4 0  9999,2 55790  70.0013 204.5612 0002610 272.8048  87.2812 14.98327522 60084,6950.201,96.107,573.88,570.252,0.0
55790.0,STARLINK-5813,PAYLOAD,2024-03-26 12:56:34,14.98313391,0.0002808,70.0016,202.5433,268.3732,91.7106,-0.00026827,-3.291e-05,0.0,0 STARLINK-5813,1 55790U 23028BB  24086.53928755 -.00003291  00000-0 -26827-3 0  9990,2 55790  70.0016 202.5433 0002808 268.3732  91.7106 14.98313391 60192,6950.244,96.108,574.061,570.158,0.0
